[{"OBJECT_NAME":"STARLINK-3238","OBJECT_ID":"2021-115L","EPOCH":"2026-03-09T12:50:49.861248","MEAN_MOTION":15.08822245,"ECCENTRICITY":0.00015744,"INCLINATION":53.2191,"RA_OF_ASC_NODE":149.8428,"ARG_OF_PERICENTER":105.1106,"MEAN_ANOMALY":255.0061,"EPHEMERIS_TYPE":0,"CLASSIFICATION_TYPE":"U","NORAD_CAT_ID":49734,"ELEMENT_SET_NO":999,"REV_AT_EPOCH":23551,"BSTAR":0.00016365772,"MEAN_MOTION_DOT":2.316e-5,"MEAN_MOTION_DDOT":0},{"OBJECT_NAME":"CZ-6A DEB","OBJECT_ID":"2022-151CD","EPOCH":"2026-03-09T04:34:52.178880","MEAN_MOTION":15.04926808,"ECCENTRICITY":0.00436133,"INCLINATION":98.6267,"RA_OF_ASC_NODE":153.8749,"ARG_OF_PERICENTER":159.2339,"MEAN_ANOMALY":201.0669,"EPHEMERIS_TYPE":0,"CLASSIFICATION_TYPE":"U","NORAD_CAT_ID":54334,"ELEMENT_SET_NO":999,"REV_AT_EPOCH":17669,"BSTAR":0.0057373504,"MEAN_MOTION_DOT":0.00083812,"MEAN_MOTION_DDOT":0}]
